NORAD_CAT_ID,OBJECT_NAME,OBJECT_TYPE,EPOCH,MEAN_MOTION,ECCENTRICITY,INCLINATION,RA_OF_ASC_NODE,ARG_OF_PERICENTER,MEAN_ANOMALY,BSTAR,MEAN_MOTION_DOT,MEAN_MOTION_DDOT,TLE_LINE0,TLE_LINE1,TLE_LINE2,SEMIMAJOR_AXIS,PERIOD,APOGEE,PERIGEE,DECAYED
56476.0,STARLINK-5545,PAYLOAD,2023-06-08 09:18:02,15.69926738,0.0003698,69.997,164.7126,271.6478,88.4294,7.9722e-06,7.46e-06,0.0,0 STARLINK-5545,1 56476U 23064AE  23159.38752953  .00000746  00000-0  79722-5 0  9994,2 56476  69.9970 164.7126 0003698 271.6478  88.4294 15.69926738  4520,6737.244,91.724,361.6,356.617,0.0
56476.0,STARLINK-5545,PAYLOAD,2023-06-09 09:46:04,15.69925266,0.000348,69.9966,161.8462,263.7873,96.2926,1.1399e-05,1.158e-05,0.0,0 STARLINK-5545,1 56476U 23064AE  23160.40699790  .00001158  00000-0  11399-4 0  9991,2 56476  69.9966 161.8462 0003480 263.7873  96.2926 15.69925266  5037,6737.248,91.724,361.457,356.768,0.0
56476.0,STARLINK-5545,PAYLOAD,2023-06-09 17:24:50,15.69924807,0.0003468,69.9967,160.9506,263.8314,96.2487,9.3669e-06,9.14e-06,0.0,0 STARLINK-5545,1 56476U 23064AE  23160.72558203  .00000914  00000-0  93669-5 0  9999,2 56476  69.9967 160.9506 0003468 263.8314  96.2487 15.69924807  4732,6737.249,91.724,361.451,356.778,0.0
56476.0,STARLINK-5545,PAYLOAD,2023-06-10 10:14:06,15.69929833,0.000334,69.9968,158.9794,263.2048,96.8768,1.6733e-05,1.8e-05,0.0,0 STARLINK-5545,1 56476U 23064AE  23161.42646112  .00001800  00000-0  16733-4 0  9995,2 56476  69.9968 158.9794 0003340 263.2048  96.8768 15.69929833  5199,6737.235,91.724,361.35,356.85,0.0
56476.0,STARLINK-5545,PAYLOAD,2023-06-10 11:45:52,15.69896354,0.0003117,69.9964,158.7999,263.0531,97.0311,8.1874e-05,9.632e-05,0.0,0 STARLINK-5545,1 56476U 23064AE  23161.49019100  .00009632  00000-0  81874-4 0  9992,2 56476  69.9964 158.7999 0003117 263.0531  97.0311 15.69896354  4857,6737.331,91.726,361.296,357.096,0.0
56476.0,STARLINK-5545,PAYLOAD,2023-06-11 06:06:53,15.6992423,0.0003546,69.9968,156.6529,263.4578,96.6214,8.4016e-06,7.97e-06,0.0,0 STARLINK-5545,1 56476U 23064AE  23162.25478361  .00000797  00000-0  84016-5 0  9990,2 56476  69.9968 156.6529 0003546 263.4578  96.6214 15.69924230  5323,6737.251,91.724,361.505,356.727,0.0
56476.0,STARLINK-5545,PAYLOAD,2023-06-11 12:13:53,15.69922841,0.000366,69.9969,155.9375,264.0285,96.0494,7.5212e-06,6.91e-06,0.0,0 STARLINK-5545,1 56476U 23064AE  23162.50965189  .00000691  00000-0  75212-5 0  9998,2 56476  69.9969 155.9375 0003660 264.0285  96.0494 15.69922841  5010,6737.255,91.724,361.586,356.654,0.0
56476.0,STARLINK-5545,PAYLOAD,2023-06-11 16:49:09,15.69926615,0.0003142,69.9978,155.3979,264.6139,95.4698,1.3903e-05,1.459e-05,0.0,0 STARLINK-5545,1 56476U 23064AE  23162.70079961  .00001459  00000-0  13903-4 0  9995,2 56476  69.9978 155.3979 0003142 264.6139  95.4698 15.69926615  5048,6737.244,91.724,361.226,356.992,0.0
56476.0,STARLINK-5545,PAYLOAD,2023-06-12 01:59:39,15.69925548,0.0003104,69.9984,154.3251,248.8826,111.2038,1.4861e-05,1.575e-05,0.0,0 STARLINK-5545,1 56476U 23064AE  23163.08309914  .00001575  00000-0  14861-4 0  9994,2 56476  69.9984 154.3251 0003104 248.8826 111.2038 15.69925548  5108,6737.247,91.724,361.203,357.021,0.0
56476.0,STARLINK-5545,PAYLOAD,2023-06-12 08:06:40,15.69921118,0.0003231,69.997,153.6079,265.327,94.7557,2.9058e-05,3.282e-05,0.0,0 STARLINK-5545,1 56476U 23064AE  23163.33796723  .00003282  00000-0  29058-4 0  9991,2 56476  69.9970 153.6079 0003231 265.3270  94.7557 15.69921118  5493,6737.26,91.724,361.301,356.948,0.0
56476.0,STARLINK-5545,PAYLOAD,2023-06-12 09:38:26,15.6990915,0.0002803,69.9977,153.43,260.6194,99.4685,-1.8954e-05,-2.489e-05,0.0,0 STARLINK-5545,1 56476U 23064AE  23163.40169968 -.00002489  00000-0 -18954-4 0  9997,2 56476  69.9977 153.4300 0002803 260.6194  99.4685 15.69909150  5151,6737.294,91.725,361.047,357.27,0.0
56476.0,STARLINK-5545,PAYLOAD,2023-06-13 05:31:12,15.69911776,0.0002288,69.9991,151.1007,247.1213,112.9741,5.3514e-05,6.223e-05,0.0,0 STARLINK-5545,1 56476U 23064AE  23164.23000236  .00006223  00000-0  53514-4 0  9990,2 56476  69.9991 151.1007 0002288 247.1213 112.9741 15.69911776  5280,6737.286,91.725,360.693,357.61,0.0
56476.0,STARLINK-5545,PAYLOAD,2023-06-13 07:02:57,15.69912549,0.0002817,69.9986,150.9218,244.3477,115.7428,3.9226e-05,4.504e-05,0.0,0 STARLINK-5545,1 56476U 23064AE  23164.29372167  .00004504  00000-0  39226-4 0  9995,2 56476  69.9986 150.9218 0002817 244.3477 115.7428 15.69912549  5297,6737.284,91.725,361.047,357.251,0.0
56476.0,STARLINK-5545,PAYLOAD,2023-06-14 09:02:44,15.69921343,0.0002947,69.9976,147.8748,244.1232,115.966,9.4731e-07,-9.9e-07,0.0,0 STARLINK-5545,1 56476U 23064AE  23165.37690691 -.00000099  00000-0  94731-6 0  9990,2 56476  69.9976 147.8748 0002947 244.1232 115.9660 15.69921343  5810,6737.259,91.724,361.11,357.139,0.0
56476.0,STARLINK-5545,PAYLOAD,2023-06-14 10:34:29,15.69922228,0.000313,69.997,147.6945,264.9569,95.127,1.2529e-06,-6.2e-07,0.0,0 STARLINK-5545,1 56476U 23064AE  23165.44062366 -.00000062  00000-0  12529-5 0  9994,2 56476  69.9970 147.6945 0003130 264.9569  95.1270 15.69922228  5470,6737.257,91.724,361.23,357.013,0.0
56476.0,STARLINK-5545,PAYLOAD,2023-06-15 11:02:32,15.69917623,0.0002984,69.9967,144.8298,265.0023,95.0832,-7.8211e-06,-1.153e-05,0.0,0 STARLINK-5545,1 56476U 23064AE  23166.46009537 -.00001153  00000-0 -78211-5 0  9991,2 56476  69.9967 144.8298 0002984 265.0023  95.0832 15.69917623  5633,6737.27,91.725,361.145,357.124,0.0
56476.0,STARLINK-5545,PAYLOAD,2023-06-15 15:37:46,15.69921564,0.0003989,69.9966,144.2954,263.4923,96.5819,1.2606e-05,1.303e-05,0.0,0 STARLINK-5545,1 56476U 23064AE  23166.65123770  .00001303  00000-0  12606-4 0  9998,2 56476  69.9966 144.2954 0003989 263.4923  96.5819 15.69921564  6015,6737.258,91.724,361.811,356.436,0.0
56476.0,STARLINK-5545,PAYLOAD,2023-06-16 08:27:04,15.69908657,0.0002756,69.9976,142.3213,262.9036,97.1846,-2.1501e-05,-2.795e-05,0.0,0 STARLINK-5545,1 56476U 23064AE  23167.35213605 -.00002795  00000-0 -21501-4 0  9995,2 56476  69.9976 142.3213 0002756 262.9036  97.1846 15.69908657  6120,6737.295,91.725,361.017,357.304,0.0
56476.0,STARLINK-5545,PAYLOAD,2023-06-16 09:58:49,15.69907074,0.0003136,69.998,142.1405,276.1,83.9838,-9.734e-06,-1.382e-05,0.0,0 STARLINK-5545,1 56476U 23064AE  23167.41585277 -.00001382  00000-0 -97340-5 0  9995,2 56476  69.9980 142.1405 0003136 276.1000  83.9838 15.69907074  5784,6737.3,91.725,361.278,357.052,0.0
56476.0,STARLINK-5545,PAYLOAD,2023-06-16 16:05:49,15.69908715,0.0003502,69.9984,141.4261,267.7515,92.3279,7.2277e-06,6.56e-06,0.0,0 STARLINK-5545,1 56476U 23064AE  23167.67071568  .00000656  00000-0  72277-5 0  9999,2 56476  69.9984 141.4261 0003502 267.7515  92.3279 15.69908715  6174,6737.295,91.725,361.52,356.801,0.0
56476.0,STARLINK-5545,PAYLOAD,2023-06-17 05:51:34,15.69931705,0.0003411,69.9972,139.8149,269.2427,90.8377,4.8487e-06,3.7e-06,0.0,0 STARLINK-5545,1 56476U 23064AE  23168.24415391  .00000370  00000-0  48487-5 0  9998,2 56476  69.9972 139.8149 0003411 269.2427  90.8377 15.69931705  6262,6737.229,91.724,361.392,356.796,0.0
56476.0,STARLINK-5545,PAYLOAD,2023-06-17 10:26:51,15.69906478,0.0003071,69.9971,139.2777,273.7078,86.3766,3.5001e-06,2.08e-06,0.0,0 STARLINK-5545,1 56476U 23064AE  23168.43532100  .00000208  00000-0  35001-5 0  9995,2 56476  69.9971 139.2777 0003071 273.7078  86.3766 15.69906478  5941,6737.302,91.725,361.236,357.098,0.0
56476.0,STARLINK-5545,PAYLOAD,2023-06-17 15:02:06,15.69917704,0.0003483,69.9967,138.7405,269.2463,90.8333,1.355e-05,1.416e-05,0.0,0 STARLINK-5545,1 56476U 23064AE  23168.62646228  .00001416  00000-0  13550-4 0  9999,2 56476  69.9967 138.7405 0003483 269.2463  90.8333 15.69917704  6320,6737.269,91.725,361.481,356.788,0.0
56476.0,STARLINK-5545,PAYLOAD,2023-06-17 21:09:06,15.69923299,0.0003511,69.998,138.0232,269.545,90.5343,7.9254e-06,7.4e-06,0.0,0 STARLINK-5545,1 56476U 23064AE  23168.88132737  .00000740  00000-0  79254-5 0  9995,2 56476  69.9980 138.0232 0003511 269.5450  90.5343 15.69923299  6017,6737.253,91.724,361.484,356.753,0.0
56476.0,STARLINK-5545,PAYLOAD,2023-06-18 04:47:51,15.69933184,0.000336,69.9982,137.1271,267.5398,92.5413,9.5384e-06,9.35e-06,0.0,0 STARLINK-5545,1 56476U 23064AE  23169.19990421  .00000935  00000-0  95384-5 0  9990,2 56476  69.9982 137.1271 0003360 267.5398  92.5413 15.69933184  6411,6737.225,91.724,361.354,356.826,0.0
56476.0,STARLINK-5545,PAYLOAD,2023-06-18 15:30:07,15.69928977,0.0003313,69.9983,135.8733,267.9174,92.1642,1.9148e-06,1.8e-07,0.0,0 STARLINK-5545,1 56476U 23064AE  23169.64592305  .00000018  00000-0  19148-5 0  9995,2 56476  69.9983 135.8733 0003313 267.9174  92.1642 15.69928977  6137,6737.237,91.724,361.334,356.87,0.0
56476.0,STARLINK-5545,PAYLOAD,2023-06-19 03:44:08,15.6992484,0.0003374,69.9989,134.4402,270.7549,89.326,2.0868e-05,2.297e-05,0.0,0 STARLINK-5545,1 56476U 23064AE  23170.15565944  .00002297  00000-0  20868-4 0  9993,2 56476  69.9989 134.4402 0003374 270.7549  89.3260 15.69924840  6214,6737.249,91.724,361.387,356.841,0.0
56476.0,STARLINK-5545,PAYLOAD,2023-06-19 06:47:39,15.69926527,0.0003514,69.9965,134.0819,268.4324,91.647,6.1597e-06,5.28e-06,0.0,0 STARLINK-5545,1 56476U 23064AE  23170.28309289  .00000528  00000-0  61597-5 0  9995,2 56476  69.9965 134.0819 0003514 268.4324  91.6470 15.69926527  6232,6737.244,91.724,361.477,356.742,0.0
56476.0,STARLINK-5545,PAYLOAD,2023-06-20 04:12:11,15.69920886,0.0002993,69.9966,131.5736,261.2544,98.8312,1.3114e-05,1.364e-05,0.0,0 STARLINK-5545,1 56476U 23064AE  23171.17513083  .00001364  00000-0  13114-4 0  9993,2 56476  69.9966 131.5736 0002993 261.2544  98.8312 15.69920886  6728,6737.26,91.724,361.142,357.109,0.0
56476.0,STARLINK-5545,PAYLOAD,2023-06-20 08:47:26,15.69930971,0.0003333,69.9968,131.036,264.6013,95.4802,2.6344e-06,1.04e-06,0.0,0 STARLINK-5545,1 56476U 23064AE  23171.36627569  .00000104  00000-0  26344-5 0  9990,2 56476  69.9968 131.0360 0003333 264.6013  95.4802 15.69930971  6403,6737.231,91.724,361.342,356.851,0.0
